{"fetched_at":"2026-03-30T09:12:31Z","count":15922,"tles":[{"name":"STARLINK-11096 [DTC]","line1":"1 59719U 24088M   26087.70354073  .00003002  00000+0  29644-4 0  9998","line2":"2 59719  53.1599 232.8966 0000845  85.1583 274.9531 15.69695320109252","category":"Starlink"}]}