{
  "norad_id": 59719,
  "name": "STARLINK-11096 [DTC]",
  "history": [
    {
      "epoch": "2026-03-28T16:53:05.919072",
      "apogee_km": 360.3385165989712,
      "perigee_km": 359.199001976961,
      "latitude_deg": -31.763744129259184,
      "longitude_deg": -140.56008992018178,
      "semi_major_axis_km": 6737.905759287966,
      "eccentricity": 8.456e-05,
      "inclination_deg": 53.1599,
      "raan_deg": 232.8966,
      "arg_perigee_deg": 85.1583,
      "mean_anomaly_deg": 274.9531,
      "mean_motion_rev_day": 15.6969532
    }
  ]
}